[{"OBJECT_NAME":"STARLINK-6222","OBJECT_ID":"2023-064AK","EPOCH":"2026-03-09T13:37:57.880128","MEAN_MOTION":14.98330013,"ECCENTRICITY":0.0003362,"INCLINATION":69.9995,"RA_OF_ASC_NODE":124.6626,"ARG_OF_PERICENTER":270.3889,"MEAN_ANOMALY":89.6885,"EPHEMERIS_TYPE":0,"CLASSIFICATION_TYPE":"U","NORAD_CAT_ID":56481,"ELEMENT_SET_NO":999,"REV_AT_EPOCH":15572,"BSTAR":6.9653e-5,"MEAN_MOTION_DOT":7.38e-6,"MEAN_MOTION_DDOT":0},{"OBJECT_NAME":"CZ-6A DEB","OBJECT_ID":"2022-151XN","EPOCH":"2026-03-09T03:53:00.747744","MEAN_MOTION":14.96908336,"ECCENTRICITY":0.00415985,"INCLINATION":98.5971,"RA_OF_ASC_NODE":139.8978,"ARG_OF_PERICENTER":176.4411,"MEAN_ANOMALY":183.7112,"EPHEMERIS_TYPE":0,"CLASSIFICATION_TYPE":"U","NORAD_CAT_ID":55516,"ELEMENT_SET_NO":999,"REV_AT_EPOCH":17147,"BSTAR":0.005138713,"MEAN_MOTION_DOT":0.00060444,"MEAN_MOTION_DDOT":0}]
